satname,norad_id,inclination_deg,eccentricity,mean_motion_rev_per_day,perigee_km,apogee_km,l1,l2
STARLINK-1404,45686,53.1578,0.0003569,15.3970346,444.54961651453596,449.4213889569901,1 45686U 20035AF  26114.51800163  .00048094  00000+0  12013-2 0  9990,2 45686  53.1578 195.1022 0003569   7.6021 352.5037 15.39703460326014
STARLINK-1413,45689,53.1582,0.0002237,15.31348226,470.2564875413136,473.3211443513683,1 45689U 20035AJ  26114.74265785  .00032822  00000+0  10765-2 0  9997,2 45689  53.1582 195.5963 0002237  31.6881 328.4255 15.31348226325944
STARLINK-1417,45693,53.0508,0.0005134,15.14779808,518.104775914454,525.1894742540908,1 45693U 20035AN  26114.55168000  .00018768  00000+0  10130-2 0  9992,2 45693  53.0508 206.0667 0005134   9.3183 350.7904 15.14779808325844
STARLINK-1420,45695,53.0459,0.0006705,15.62853121,374.88927702280944,383.9511612536744,1 45695U 20035AQ  26114.53286079  .00072370  00000+0  78540-3 0  9998,2 45695  53.0459 159.6606 0006705 350.4692   9.6193 15.62853121326505
STARLINK-1422,45696,53.1574,0.0002369,15.31521976,469.64810222006054,472.8933516010711,1 45696U 20035AR  26114.48699714  .00036161  00000+0  11779-2 0  9995,2 45696  53.1574 196.7655 0002369  24.8198 335.2917 15.31521976325985
STARLINK-1351,45697,53.0459,0.000748,15.6005638,382.4333784734936,392.5547625549825,1 45697U 20035AS  26114.49708435  .00072721  00000+0  87883-3 0  9990,2 45697  53.0459 159.6236 0007480 350.6246   9.4625 15.60056380326502
STARLINK-1400,45700,53.0449,0.00059,15.5876778,387.22830340397104,395.2161472898806,1 45700U 20035AV  26114.58421852  .00070691  00000+0  89790-3 0  9993,2 45700  53.0449 161.1365 0005900 320.3859  39.6721 15.58767780326485
STARLINK-1403,45701,53.155,0.0001908,15.30416803,473.2603150828827,475.8753072388208,1 45701U 20035AW  26114.46944593  .00036869  00000+0  12424-2 0  9991,2 45701  53.1550 184.0654 0001908  25.4648 334.6447 15.30416803326152
STARLINK-1407,45703,53.0304,0.0003083,15.67444879,364.1371801150426,368.29574846112246,1 45703U 20035AY  26114.31384343  .00107076  00000+0  96235-3 0  9990,2 45703  53.0304  91.9883 0003083 318.1915  41.8864 15.67444879327431
STARLINK-1411,45706,53.0374,0.0005747,15.73031096,346.37297146503806,354.10656772401126,1 45706U 20035BB  26114.91668980  .00110372  00000+0  78545-3 0  9998,2 45706  53.0374 113.6916 0005747  32.2224 313.0503 15.73031096  6018
STARLINK-1423,45710,53.0438,0.0007772,15.64566114,369.2387583151394,379.7350369015812,1 45710U 20035BF  26114.46407306  .00038988  00000+0  39963-3 0  9999,2 45710  53.0438 159.7727 0007772 324.0216  36.0274 15.64566114326485
STARLINK-1433,45711,53.044,0.0007362,15.63982056,371.1954200103828,381.14045860301667,1 45711U 20035BG  26114.62935764  .00080173  00000+0  83084-3 0  9998,2 45711  53.0440 157.4273 0007362 332.9969  27.0661 15.63982056326530
STARLINK-1434,45712,53.0518,0.0003917,15.30846539,470.6015978445812,475.9690020743692,1 45712U 20035BH  26114.65358042  .00027005  00000+0  90221-3 0  9996,2 45712  53.0518 166.4216 0003917 327.7494  32.3265 15.30846539326427
STARLINK-1465,45731,53.0488,0.0004524,15.57240839,392.5821395804687,398.71105898109727,1 45731U 20038B   26114.83027573  .00069529  00000+0  93572-3 0  9991,2 45731  53.0488   0.5149 0004524 106.9133 253.2374 15.57240839323555
STARLINK-1471,45735,53.0464,0.0002172,15.51336597,411.3476438511607,414.2976367189003,1 45735U 20038F   26114.80771042  .00025035  00000+0  42519-3 0  9998,2 45735  53.0464 280.6429 0002172  52.8727 307.2480 15.51336597324684
STARLINK-1480,45741,53.052,0.0002522,15.58833869,389.3237087166344,392.7380770017935,1 45741U 20038M   26114.83026571  .00040533  00000+0  51852-3 0  9998,2 45741  53.0520 354.3761 0002522 175.7450 184.3583 15.58833869323654
STARLINK-1500,45744,53.0384,0.000325,15.37184083,452.2202627892075,456.66143839209053,1 45744U 20038Q   26114.87350742  .00029062  00000+0  79402-3 0  9990,2 45744  53.0384 335.6852 0003250  89.9026 270.2348 15.37184083323919
STARLINK-1504,45746,53.0209,4.78e-05,15.56230552,398.25399687500794,398.90185082172775,1 45746U 20038S   26114.77595123  .00035861  00000+0  50664-3 0  9998,2 45746  53.0209 279.3025 0000478  29.8439 330.2598 15.56230552324686
STARLINK-1506,45747,53.0761,0.0004086,15.27608799,480.15941742408813,485.7663082319923,1 45747U 20038T   26114.87410966  .00006103  00000+0  23571-3 0  9995,2 45747  53.0761 348.5300 0004086  61.1746 298.9662 15.27608799323742
STARLINK-1464,45751,53.05,0.000263,15.49615464,416.06277181757196,419.6374610408129,1 45751U 20038X   26114.83205914  .00052594  00000+0  93704-3 0  9991,2 45751  53.0500 344.2969 0002630 115.7459 244.3821 15.49615464323790
STARLINK-1477,45754,53.0513,0.0003332,15.16666606,513.6264196513712,518.2206215823098,1 45754U 20038AA  26114.85987409  .00016741  00000+0  85877-3 0  9998,2 45754  53.0513   2.7125 0003332 117.1147 243.0186 15.16666606323537
STARLINK-1478,45755,53.0482,0.0002027,15.6290638,377.89697481456915,380.6364262747693,1 45755U 20038AB  26114.84998225  .00080566  00000+0  87177-3 0  9997,2 45755  53.0482 333.3257 0002027 104.0111 256.1128 15.62906380323930
STARLINK-1493,45759,53.0505,0.000433,15.57882504,390.8542254307613,396.7187111543017,1 45759U 20038AF  26114.87825606  .00065207  00000+0  85766-3 0  9993,2 45759  53.0505 341.4665 0004330 177.4490 182.6545 15.57882504323825
STARLINK-1494,45760,53.0441,0.0002767,15.85346349,313.49759192701094,317.2017674555509,1 45760U 20038AG  26114.91668980  .00224624  00000+0  90098-3 0  9994,2 45760  53.0441 279.8846 0002767 234.8791 313.5413 15.85346349  6005
STARLINK-1502,45764,53.0479,0.0006649,15.54452319,399.2358644292681,408.25441129619867,1 45764U 20038AL  26114.82921090  .00047881  00000+0  71801-3 0  9991,2 45764  53.0479 344.3679 0006649 160.5612 199.5653 15.54452319323799
STARLINK-1470,45772,53.045,0.0002725,15.31912867,468.2393771666293,471.9716693418022,1 45772U 20038AU  26114.85628196  .00041477  00000+0  13319-2 0  9998,2 45772  53.0450 319.3639 0002725 168.0260 192.0805 15.31912867324149
STARLINK-1482,45773,53.1615,0.0002799,15.34007226,461.9558183812551,465.78597440165504,1 45773U 20038AV  26114.86790750  .00033418  00000+0  10082-2 0  9996,2 45773  53.1615 335.9207 0002799 159.0953 201.0164 15.34007226323920
STARLINK-1496,45780,53.0486,0.0002113,15.55977291,397.8811768409523,400.7453273174806,1 45780U 20038BC  26114.87196376  .00072067  00000+0  10161-2 0  9990,2 45780  53.0486 315.4759 0002113 299.8474  60.2326 15.55977291324184
STARLINK-1513,45786,53.161,0.0001462,15.31708204,469.71423739640977,471.71684187900064,1 45786U 20038BJ  26114.85850752  .00000995  00000+0  43812-4 0  9991,2 45786  53.1610 336.6000 0001462  82.3078 277.8089 15.31708204323917
STARLINK-1522,46027,53.0634,0.000129,15.11200866,531.6450854131808,533.4280391922557,1 46027U 20055A   26114.67731230  .00019291  00000+0  11499-2 0  9991,2 46027  53.0634 278.8713 0001290 198.2161 161.8785 15.11200866315834
STARLINK-1523,46028,53.1604,0.0001139,15.30192768,474.4560636925826,476.01726221300305,1 46028U 20055B   26114.69979854  .00003025  00000+0  11424-3 0  9997,2 46028  53.1604 272.9905 0001139  87.3509 272.7622 15.30192768315943
STARLINK-1526,46029,53.1608,0.0001302,15.30198527,474.3271605232694,476.11177454741573,1 46029U 20055C   26114.82410365  .00002343  00000+0  91214-4 0  9998,2 46029  53.1608 272.4238 0001302  66.7033 293.4104 15.30198527315952
STARLINK-1555,46032,53.1585,0.0001169,15.30195958,474.4259798615676,476.02829639706306,1 46032U 20055F   26114.67767698  .00000630  00000+0  33382-4 0  9998,2 46032  53.1585 273.0842 0001169  84.2043 275.9091 15.30195958315938
STARLINK-1556,46033,53.1608,0.0001057,15.30200402,474.4894699331817,475.9382683069143,1 46033U 20055G   26114.85676661  .00001173  00000+0  51711-4 0  9997,2 46033  53.1608 272.2677 0001057  66.0144 294.0967 15.30200402315933
STARLINK-1557,46034,53.1571,0.0001058,15.29376713,476.949013828189,478.3997035116845,1 46034U 20055H   26114.85645036  .00006569  00000+0  23960-3 0  9998,2 46034  53.1571 272.2326 0001058  92.1201 267.9920 15.29376713315934
STARLINK-1558,46035,53.1612,8.71e-05,15.30206644,474.59830646730916,475.7921569420723,1 46035U 20055J   26114.80197611  .00000312  00000+0  22654-4 0  9995,2 46035  53.1612 272.5196 0000871  97.4030 262.7070 15.30206644315957
STARLINK-1560,46036,53.1586,0.0001349,15.29366016,476.78147356617865,478.6311800957574,1 46036U 20055K   26114.85321785  .00000775  00000+0  39162-4 0  9997,2 46036  53.1586 272.2853 0001349  72.5698 287.5449 15.29366016315964
STARLINK-1567,46038,53.0826,0.000321,15.95465792,284.87730597369045,289.15633472635454,1 46038U 20055M   26114.91668980  .00446351  91483-4  11010-2 0  9991,2 46038  53.0826 260.9230 0003210 322.9152 275.6797 15.95465792  3075
STARLINK-1569,46039,53.1593,0.0001254,15.30202313,474.34875374347484,476.0675727104117,1 46039U 20055N   26114.67451250  .00001232  00000+0  53722-4 0  9998,2 46039  53.1593 273.1058 0001254  89.4863 270.6281 15.30202313315922
STARLINK-1582,46043,53.1587,0.0001074,15.31717159,469.9532817212166,471.42440951285516,1 46043U 20055S   26114.80052461  .00011018  00000+0  36609-3 0  9996,2 46043  53.1587 272.3977 0001074  85.6700 274.4424 15.31717159315942
STARLINK-1591,46045,53.1609,0.0001124,15.30194806,474.46025929522057,476.0008963267119,1 46045U 20055U   26114.83779906  .00001717  00000+0  70105-4 0  9996,2 46045  53.1609 272.3462 0001124 102.5831 257.5295 15.30194806315932
STARLINK-1524,46047,53.1598,0.0001063,15.30198691,474.4904661197161,475.9474896006077,1 46047U 20055W   26114.83196125  .00002328  00000+0  90694-4 0  9998,2 46047  53.1598 259.5125 0001063 107.5066 252.6051 15.30198691316136
STARLINK-1527,46048,53.1641,0.0001222,15.31711353,469.8692240991804,471.54308136570853,1 46048U 20055X   26114.69993959  .00001391  00000+0  56554-4 0  9999,2 46048  53.1641 260.1411 0001222  86.7302 273.3839 15.31711353316096
